STARLINK-33718          
1 63476U 25070S   25110.91668981 -.00600466  00000+0 -41103-2 0  9991
2 63476  43.0003 287.1756 0001349 256.8536 356.6318 15.75482223  3561
STARLINK-33630          
1 63477U 25070T   25110.91668981 -.00370154  00000+0 -24850-2 0  9990
2 63477  43.0004 287.1706 0001772 268.4827 347.0420 15.75298745  3562
STARLINK-33695          
1 63478U 25070U   25110.91668981 -.00234319  00000+0 -15544-2 0  9993
2 63478  43.0004 287.1655 0001704 255.3398   2.1648 15.75192556  3563
STARLINK-33713          
1 63479U 25070V   25110.91668981 -.00031822  00000+0 -20457-3 0  9998
2 63479  43.0004 287.1559 0001903 249.6537  11.7401 15.75066353  3567
STARLINK-33721          
1 63480U 25070W   25110.91668981 -.00164057  00000+0 -10806-2 0  9993
2 63480  43.0003 287.1600 0001313 250.5146   8.9246 15.75148086  3566
STARLINK-33639          
1 63481U 25070X   25110.91668981  .00116736  00000+0  75466-3 0  9997
2 63481  43.0005 287.1462 0001792 246.5874  18.6805 15.74975213  3567
STARLINK-33667          
1 63482U 25070Y   25110.91668981  .00054962  00000+0  35903-3 0  9992
2 63482  43.0002 287.1506 0001540 256.5448   6.7950 15.75010129  3569
STARLINK-33688          
1 63483U 25070Z   25110.91668981 -.01385756  00000+0 -84580-2 0  9998
2 63483  42.9995 286.7897 0001799 260.4800 146.4620 15.79093463  3561
STARLINK-33700          
1 63484U 25070AA  25110.91668981 -.01272446  00000+0 -77535-2 0  9992
2 63484  42.9994 286.7983 0001831 264.9736 138.2975 15.79346790  3567
STARLINK-33687          
1 63485U 25070AB  25108.66668981 -.01944093  10525-2 -49425-2 0  9999
2 63485  42.9979 299.8501 0001772 261.4728 201.4967 15.94659712  3202
STARLINK-33716          
1 63486U 25070AC  25110.91668981 -.01205173  00000+0 -83030-2 0  9994
2 63486  42.9993 286.9304 0001717 259.6913  90.7407 15.76486323  3575
STARLINK-33754          
1 63487U 25070AD  25110.91668981 -.01246811  00000+0 -75004-2 0  9991
2 63487  42.9994 286.8075 0001738 261.5349 138.2352 15.79566914  3563
STARLINK-33828          
1 63493U 25071A   25110.91668981 -.01107531  00000+0 -78130-2 0  9997
2 63493  53.1554 207.4184 0001049  55.0682  39.5131 15.75963678  3233
STARLINK-33819          
1 63494U 25071B   25110.91668981 -.01111210  00000+0 -78360-2 0  9992
2 63494  53.1549 207.4145 0001021  54.7059  41.7522 15.75981074  3238
STARLINK-33845          
1 63495U 25071C   25110.91668981 -.01119300  00000+0 -79213-2 0  9999
2 63495  53.1551 207.4101 0000918  65.6736  32.8854 15.75920668  3232
STARLINK-33829          
1 63496U 25071D   25110.91668981 -.01134604  00000+0 -80556-2 0  9996
2 63496  53.1552 207.4058 0000969  66.4364  34.1632 15.75883594  3197
STARLINK-33815          
1 63497U 25071E   25110.91668981 -.01143913  00000+0 -81495-2 0  9993
2 63497  53.1554 207.4016 0001009  58.0633  44.6092 15.75828264  3252
STARLINK-33833          
1 63498U 25071F   25110.91668981 -.01155407  00000+0 -82476-2 0  9995
2 63498  53.1551 207.3936 0001003  58.1744  48.3939 15.75811310  3253
STARLINK-33534          
1 63499U 25071G   25110.91668981 -.01140749  00000+0 -81357-2 0  9996
2 63499  53.1551 207.3973 0000934  62.7141  41.9498 15.75797210  3238
STARLINK-33838          
1 63500U 25071H   25110.91668981 -.01171495  00000+0 -84369-2 0  9997
2 63500  53.1552 207.3807 0000951  68.1228  44.5907 15.75650279  3049
STARLINK-33837          
1 63501U 25071J   25110.91668981 -.01163340  00000+0 -83434-2 0  9990
2 63501  53.1553 207.3895 0001064  55.9640  52.7392 15.75723503  3192
STARLINK-33818          
1 63502U 25071K   25110.91668981 -.01194190  00000+0 -86908-2 0  9997
2 63502  53.1556 207.3679 0000934  71.5679  47.2806 15.75468670  3254
STARLINK-33583          
1 63503U 25071L   25110.91668981 -.01163447  00000+0 -83572-2 0  9993
2 63503  53.1552 207.3848 0000965  64.7568  45.9420 15.75689515  3254
STARLINK-33811          
1 63504U 25071M   25110.91668981 -.01180943  00000+0 -85351-2 0  9991
2 63504  53.1553 207.3764 0000956  64.0949  50.6651 15.75592986  3196
STARLINK-33825          
1 63505U 25071N   25110.91668981 -.01188150  00000+0 -86238-2 0  9995
2 63505  53.1553 207.3720 0000980  61.6293  55.2104 15.75513951  3257
STARLINK-33792          
1 63506U 25071P   25110.91668981 -.01197708  00000+0 -87553-2 0  9996
2 63506  53.1558 207.3637 0000931  62.4950  58.4372 15.75376478  3191
STARLINK-33843          
1 63507U 25071Q   25110.91668981 -.01201381  00000+0 -87906-2 0  9992
2 63507  53.1555 207.3595 0001019  53.5636  69.3123 15.75362707  3232
STARLINK-33809          
1 63508U 25071R   25110.91668981 -.01188732  00000+0 -87184-2 0  9995
2 63508  53.1557 207.3550 0001039  58.1664  66.7526 15.75278944  3192
STARLINK-33678          
1 63509U 25071S   25110.91668981 -.01178066  00000+0 -86533-2 0  9992
2 63509  53.1553 207.3511 0000814  65.7072  61.2086 15.75220954  2988
STARLINK-33764          
1 63510U 25071T   25110.91668981 -.01144335  00000+0 -84065-2 0  9994
2 63510  53.1556 207.3469 0001147  57.9334  71.0038 15.75133818  3236
