OBJECT_NAME,OBJECT_ID,EPOCH,MEAN_MOTION,ECCENTRICITY,INCLINATION,RA_OF_ASC_NODE,ARG_OF_PERICENTER,MEAN_ANOMALY,EPHEMERIS_TYPE,CLASSIFICATION_TYPE,NORAD_CAT_ID,ELEMENT_SET_NO,REV_AT_EPOCH,BSTAR,MEAN_MOTION_DOT,MEAN_MOTION_DDOT
STARLINK-33718,2025-070S,2025-04-20T22:00:01.999584,15.75482223,.0001349,43.0003,287.1756,256.8536,356.6318,0,U,63476,999,356,-.41103E-2,-.600466E-2,0
STARLINK-33630,2025-070T,2025-04-20T22:00:01.999584,15.75298745,.0001772,43.0004,287.1706,268.4827,347.0420,0,U,63477,999,356,-.2485E-2,-.370154E-2,0
STARLINK-33695,2025-070U,2025-04-20T22:00:01.999584,15.75192556,.0001704,43.0004,287.1655,255.3398,2.1648,0,U,63478,999,356,-.15544E-2,-.234319E-2,0
STARLINK-33713,2025-070V,2025-04-20T22:00:01.999584,15.75066353,.0001903,43.0004,287.1559,249.6537,11.7401,0,U,63479,999,356,-.20457E-3,-.31822E-3,0
STARLINK-33721,2025-070W,2025-04-20T22:00:01.999584,15.75148086,.0001313,43.0003,287.1600,250.5146,8.9246,0,U,63480,999,356,-.10806E-2,-.164057E-2,0
STARLINK-33639,2025-070X,2025-04-20T22:00:01.999584,15.74975213,.0001792,43.0005,287.1462,246.5874,18.6805,0,U,63481,999,356,.75466E-3,.116736E-2,0
STARLINK-33667,2025-070Y,2025-04-20T22:00:01.999584,15.75010129,.000154,43.0002,287.1506,256.5448,6.7950,0,U,63482,999,356,.35903E-3,.54962E-3,0
STARLINK-33688,2025-070Z,2025-04-20T22:00:01.999584,15.79093463,.0001799,42.9995,286.7897,260.4800,146.4620,0,U,63483,999,356,-.8458E-2,-.1385756E-1,0
STARLINK-33700,2025-070AA,2025-04-20T22:00:01.999584,15.79346790,.0001831,42.9994,286.7983,264.9736,138.2975,0,U,63484,999,356,-.77535E-2,-.1272446E-1,0
STARLINK-33687,2025-070AB,2025-04-18T16:00:01.999584,15.94659712,.0001772,42.9979,299.8501,261.4728,201.4967,0,U,63485,999,320,-.49425E-2,-.1944093E-1,.10525E-2
STARLINK-33716,2025-070AC,2025-04-20T22:00:01.999584,15.76486323,.0001717,42.9993,286.9304,259.6913,90.7407,0,U,63486,999,357,-.8303E-2,-.1205173E-1,0
STARLINK-33754,2025-070AD,2025-04-20T22:00:01.999584,15.79566914,.0001738,42.9994,286.8075,261.5349,138.2352,0,U,63487,999,356,-.75004E-2,-.1246811E-1,0
STARLINK-33828,2025-071A,2025-04-20T22:00:01.999584,15.75963678,.0001049,53.1554,207.4184,55.0682,39.5131,0,U,63493,999,323,-.7813E-2,-.1107531E-1,0
STARLINK-33819,2025-071B,2025-04-20T22:00:01.999584,15.75981074,.0001021,53.1549,207.4145,54.7059,41.7522,0,U,63494,999,323,-.7836E-2,-.111121E-1,0
STARLINK-33845,2025-071C,2025-04-20T22:00:01.999584,15.75920668,.0000918,53.1551,207.4101,65.6736,32.8854,0,U,63495,999,323,-.79213E-2,-.11193E-1,0
STARLINK-33829,2025-071D,2025-04-20T22:00:01.999584,15.75883594,.0000969,53.1552,207.4058,66.4364,34.1632,0,U,63496,999,319,-.80556E-2,-.1134604E-1,0
STARLINK-33815,2025-071E,2025-04-20T22:00:01.999584,15.75828264,.0001009,53.1554,207.4016,58.0633,44.6092,0,U,63497,999,325,-.81495E-2,-.1143913E-1,0
STARLINK-33833,2025-071F,2025-04-20T22:00:01.999584,15.75811310,.0001003,53.1551,207.3936,58.1744,48.3939,0,U,63498,999,325,-.82476E-2,-.1155407E-1,0
STARLINK-33534,2025-071G,2025-04-20T22:00:01.999584,15.75797210,.0000934,53.1551,207.3973,62.7141,41.9498,0,U,63499,999,323,-.81357E-2,-.1140749E-1,0
STARLINK-33838,2025-071H,2025-04-20T22:00:01.999584,15.75650279,.0000951,53.1552,207.3807,68.1228,44.5907,0,U,63500,999,304,-.84369E-2,-.1171495E-1,0
STARLINK-33837,2025-071J,2025-04-20T22:00:01.999584,15.75723503,.0001064,53.1553,207.3895,55.9640,52.7392,0,U,63501,999,319,-.83434E-2,-.116334E-1,0
STARLINK-33818,2025-071K,2025-04-20T22:00:01.999584,15.75468670,.0000934,53.1556,207.3679,71.5679,47.2806,0,U,63502,999,325,-.86908E-2,-.119419E-1,0
STARLINK-33583,2025-071L,2025-04-20T22:00:01.999584,15.75689515,.0000965,53.1552,207.3848,64.7568,45.9420,0,U,63503,999,325,-.83572E-2,-.1163447E-1,0
STARLINK-33811,2025-071M,2025-04-20T22:00:01.999584,15.75592986,.0000956,53.1553,207.3764,64.0949,50.6651,0,U,63504,999,319,-.85351E-2,-.1180943E-1,0
STARLINK-33825,2025-071N,2025-04-20T22:00:01.999584,15.75513951,.000098,53.1553,207.3720,61.6293,55.2104,0,U,63505,999,325,-.86238E-2,-.118815E-1,0
STARLINK-33792,2025-071P,2025-04-20T22:00:01.999584,15.75376478,.0000931,53.1558,207.3637,62.4950,58.4372,0,U,63506,999,319,-.87553E-2,-.1197708E-1,0
STARLINK-33843,2025-071Q,2025-04-20T22:00:01.999584,15.75362707,.0001019,53.1555,207.3595,53.5636,69.3123,0,U,63507,999,323,-.87906E-2,-.1201381E-1,0
STARLINK-33809,2025-071R,2025-04-20T22:00:01.999584,15.75278944,.0001039,53.1557,207.3550,58.1664,66.7526,0,U,63508,999,319,-.87184E-2,-.1188732E-1,0
STARLINK-33678,2025-071S,2025-04-20T22:00:01.999584,15.75220954,.0000814,53.1553,207.3511,65.7072,61.2086,0,U,63509,999,298,-.86533E-2,-.1178066E-1,0
STARLINK-33764,2025-071T,2025-04-20T22:00:01.999584,15.75133818,.0001147,53.1556,207.3469,57.9334,71.0038,0,U,63510,999,323,-.84065E-2,-.1144335E-1,0
